{
  "type": "FeatureCollection",
  "features": [
    {
      "type": "Feature",
      "properties": {
        "norad_id": 54259,
        "name": "EUTELSAT 10B",
        "group": "eutelsat",
        "lat": 0.05207092950621261,
        "lon": -154.08185349512297,
        "alt_km": 35784.7330511791,
        "timestamp": "2025-12-26T06:43:29.178407+00:00",
        "meta_object_name": "EUTELSAT 10B",
        "meta_object_id": "2022-157A",
        "meta_epoch": "2025-12-25T01:07:54.431328",
        "meta_mean_motion": 1.00270064,
        "meta_eccentricity": 6.834e-05,
        "meta_inclination": 0.06,
        "meta_ra_of_asc_node": 95.6031,
        "meta_arg_of_pericenter": 57.2113,
        "meta_mean_anomaly": 328.0007,
        "meta_ephemeris_type": 0,
        "meta_classification_type": "U",
        "meta_norad_cat_id": 54259,
        "meta_element_set_no": 999,
        "meta_rev_at_epoch": 1128,
        "meta_bstar": 0,
        "meta_mean_motion_dot": 8.9e-07,
        "meta_mean_motion_ddot": 0,
        "tle_line1": "1 54259U 22157A   25359.04715777  .00000089  00000+0  00000+0 0  9999",
        "tle_line2": "2 54259   0.0600  95.6031 0000683  57.2113 328.0007  1.00270064 11285"
      },
      "geometry": {
        "type": "Point",
        "coordinates": [
          -154.08185349512297,
          0.05207092950621261
        ]
      }
    },
    {
      "type": "Feature",
      "properties": {
        "norad_id": 59346,
        "name": "EUTELSAT 36D",
        "group": "eutelsat",
        "lat": -0.010981038132329238,
        "lon": -128.2289704300591,
        "alt_km": 35789.06557212045,
        "timestamp": "2025-12-26T06:43:29.178419+00:00",
        "meta_object_name": "EUTELSAT 36D",
        "meta_object_id": "2024-059A",
        "meta_epoch": "2025-12-25T22:15:38.706912",
        "meta_mean_motion": 1.00265814,
        "meta_eccentricity": 3.451e-05,
        "meta_inclination": 0.0187,
        "meta_ra_of_asc_node": 46.0762,
        "meta_arg_of_pericenter": 344.367,
        "meta_mean_anomaly": 74.0358,
        "meta_ephemeris_type": 0,
        "meta_classification_type": "U",
        "meta_norad_cat_id": 59346,
        "meta_element_set_no": 999,
        "meta_rev_at_epoch": 641,
        "meta_bstar": 0,
        "meta_mean_motion_dot": 1.77e-06,
        "meta_mean_motion_ddot": 0,
        "tle_line1": "1 59346U 24059A   25359.92753133  .00000177  00000+0  00000+0 0  9997",
        "tle_line2": "2 59346   0.0187  46.0762 0000345 344.3670  74.0358  1.00265814  6414"
      },
      "geometry": {
        "type": "Point",
        "coordinates": [
          -128.2289704300591,
          -0.010981038132329238
        ]
      }
    }
  ]
}